#dP2020  3 28  0  0  0.00000000      96 __u+U ITR00 FIT  IAC
## 2098 518400.00000000   900.00000000 58936 0.0000000000000
+  113   C06C07C08C09C10C11C12C13C14C16C19C20C21C22C23C24C25
+        C26C27C28C29C30C32C33C34C35C36C37C38C39C40C43C44C45
+        C46E01E02E03E04E05E07E08E09E11E12E13E14E15E18E21E24
+        E25E26E27E30E31E33E36G01G02G03G04G05G06G07G08G09G10
+        G11G12G13G14G15G16G17G18G19G20G21G22G23G24G25G26G27
+        G28G29G30G31G32R01R02R03R04R05R07R08R09R11R12R13R14
+        R15R16R17R18R19R20R21R22R23R24R26  0  0  0  0  0  0
++        10  7  7  8  8  8  8  8  8  7  9  7  7  8  8  7  6
++         8  6  7  6  6  7  7  8  7  5  8  6 14 12  8  8  7
++         9  5  6  7  6  7  7  7  6  7  7  6  8  7  7  5  6
++         5  5  6  6  5  5  7  5  5  7  6  7  6  6  5  6  6
++         6  6  5  6  6  7  6  0  6  6  6  6  0  5  6  6  6
++         6  7  5  6  6  7  6  7  7  6  7  6  6  5  7  7  5
++         5  7  7  6  7  7  6  6  7  7  0  0  0  0  0  0  0
%c M  cc GPS ccc cccc cccc cccc cccc ccccc ccccc ccccc ccccc
%c cc cc ccc ccc cccc cccc cccc cccc ccccc ccccc ccccc ccccc
%f  0.0000000  0.000000000  0.00000000000  0.000000000000000
%f  0.0000000  0.000000000  0.00000000000  0.000000000000000
%i    0    0    0    0      0      0      0      0         0
%i    0    0    0    0      0      0      0      0         0
/* INFORMATION & ANALYSIS CENTER (IAC)      ULTRA-RAPID DATA
/* S/V CLOCKS ARE ALIGNED TO GNSS TIME                      
/* G:C1WC2W R:C1PC2P E:C1XC5X C:C2IC6I J:C1CC2S             
/* PCV:IGS14_2097 OL/AL:FES2004  NONE     YN ORB:CoN CLK:CoN
*  2020 03 28 17 30  0.00000000
PC06 -13412.586908  37737.671590  14225.905621    241.521997
PC07 -13048.025328  22613.562968 -32913.472435    906.573185
PC08 -25906.445455  26389.582739  20042.708499   -175.427850
PC09  -4866.110816  42084.803456   -560.761056    433.542765
PC10   2631.108105  29024.997128 -30174.047486   -800.529965
PC11 -16329.773738   1182.779062 -22530.347831   -268.437470
PC12  -7079.411696 -18244.217801 -19866.337418    339.609092
PC13 -11868.005551  27827.349318  29355.267830    349.599904
PC14 -21503.234166  -8627.647031  15627.522974    242.465788
PC16 -10035.283273  39727.562154  10399.434581   -704.586515
PC19  18437.074510   -671.798581 -20901.816305    365.409964
PC20  21197.450065  15975.607334  -8543.562071   -934.828863
PC21 -11411.245548 -23711.057379  -9299.595536   -222.388942
PC22   4901.789967 -17295.792514 -21341.656491   -855.127182
PC23 -15413.845511  15169.465688 -17638.293634   -937.451713
PC24 -22732.128643  -6874.559013  14624.215750   -881.442065
PC25 -26919.513848   6869.227595  -2530.290402   -563.844315
PC26  -6209.325583 -15135.902814  22597.606684    623.391173
PC27    452.606155  24436.985902  13476.565003    303.148159
PC28 -12358.217510  24753.386444  -3632.634086    294.120690
PC29  17514.120312 -11292.476763  18552.528359    207.204300
PC30  13217.038242   9644.105036  22609.693397    293.612645
PC32  11545.826357  23631.308709   9333.571454   -912.617588
PC33 -18513.426659    714.913398  20885.247998   -891.715941
PC34 -13460.856220  -9184.808506 -22654.033721   -585.497152
PC35  11603.447980 -25073.177725   3781.792882   -918.084016
PC36  27128.832549  -6111.181607   2330.329722   -821.221441
PC37   5182.167702  15422.081005 -22660.062000   -851.110663
PC38 -22283.864095  28381.116183  21753.176883     69.253895
PC39  -7187.941274  40315.130765  10273.863100     12.764322
PC40   -272.522840  25282.392153 -33718.500879     30.048368
PC43 -17692.376203  10928.264789 -18623.294973 999999.999999
PC44  -1211.500641 -24473.509491 -13319.855502   -143.306813
PC45  15441.238247 -15120.592679  17664.611268     96.402588
PC46  23050.577843   6454.534214 -14368.055409 999999.999999
PE01 -15810.960390  11171.843776 -22394.505414   -824.250314
PE02  15753.619445 -11201.624117  22414.996437    122.543677
PE03   9028.613620 -20221.779352 -19643.520057   -281.781373
PE04   4657.550464  28935.435077   4159.170847   -494.218212
PE05  17591.205399    469.779315 -23796.361154   -393.391152
PE07 -15819.536943 -20727.542657  14027.923411   -360.459272
PE08  -5029.320998 -28904.653035  -3968.837513   6200.311612
PE09  15894.941190  20566.325232 -14140.953889   6111.015437
PE11  13290.527546   9653.323938  24622.875499   1969.553363
PE12  -4963.037380  22537.199635  18558.857704   5881.838338
PE13 -13095.741051  -9735.764212 -24686.265514    399.606826
PE14 -13470.367024 -21778.353194 -18498.554192   -957.083598
PE15   4716.653082 -22429.741760 -18712.703948    872.414722
PE18   4818.161509  22937.073124   8549.959272  -1055.372057
PE21 -28238.394775  -1530.599708  -8744.593435   -590.429922
PE24  24105.852976  13767.272217 -10323.625884   5536.611729
PE25  28271.369541   1621.427891   8625.609523   -508.014558
PE26 -23426.492772   8759.133092 -15826.271257   3366.854177
PE27 -24261.185614 -13539.904132  10196.689443    252.695937
PE30  -5671.184029 -17592.566700  23102.212304   4030.880816
PE31   6060.841623  17541.021503 -23058.848265   -472.122637
PE33 -19766.718442  21973.190763   1766.320798   -469.027296
PE36  23221.412438  -8651.565239  16190.420288    580.182039
PG01   7030.176790 -17892.682189 -18385.429960   -340.876179
PG02 -22193.994639  14510.718760    194.645830   -429.845835
PG03  -4834.255723 -18166.857902 -18856.535609   -130.066364
PG04    260.924911 -26500.927361   1529.192977    -68.539013
PG05 -16239.772421   7010.659973  19737.019663     -9.887624
PG06 -23880.132201   5307.373295 -10349.182497   -240.963719
PG07 -11656.541394 -11057.560156  21504.472336   -246.009795
PG08   6809.170899 -23584.636105   9830.013001    -28.724097
PG09  -8014.009001 -22591.817199  11369.223767   -186.191437
PG10  23927.674116  11084.069004  -4008.833061   -292.247073
PG11  10983.793778 -23794.392178  -5697.080352   -321.076814
PG12   1662.314913  17650.625186 -20065.618652    135.593371
PG13 -12869.653031  17764.814170  14792.731455     -2.280807
PG14  15191.642949  -3258.164885 -21179.648261    -23.308882
PG15  -4394.294827  24417.962594   8627.967875   -241.840268
PG16  16014.759993  -5298.624940  20418.029353   -140.180959
PG17 -13435.373983  -7977.687456 -21064.913866    239.648908
PG18   5140.825256  14377.232673  21737.395660    135.730923
PG19 -15020.940345    968.688225 -22179.613753   -179.628693
PG20  20706.467507  15027.423669   7445.775193    527.850730
PG21  12458.899186  10410.743440  21774.351995    -21.651538
PG22   4113.834741 -15441.676769 -21001.163976   -785.334997
PG23  -1814.624776 -26217.361074   2315.915985 999999.999999
PG24  -7861.674238  19302.373744 -16448.839367    -10.935761
PG25  13183.143519  18952.651538 -13604.530623     -6.580128
PG26  22712.831683   1270.361131  13855.369819    176.566062
PG27  12235.651295 -15112.664803  17802.281577   -251.314643
PG28 -22683.570796 -12430.442624  -5099.005659    729.589137
PG29   4515.966989  24180.956574   9954.913113    -67.583772
PG30 -20683.639722  -3058.077627  16529.430347   -185.785406
PG31  24742.725804  -6498.849818  -8002.820854    -32.381837
PG32  14755.017198   6512.888183 -21051.896755    246.934849
PR01  -7242.207343   9288.830986  22629.059360     59.200888
PR02   6872.062061  22415.957299  10158.694100    419.033114
PR03  14810.938253  19468.041723  -7273.074725     12.337159
PR04  14102.082805   5508.746723 -20500.331784     43.583169
PR05   5463.949604 -11510.352753 -22080.498714     47.602750
PR07 -14939.254635 -19068.530761   7967.943336    -34.844684
PR08 -14202.222437  -5428.910630  20533.362745    -51.297033
PR09  -5451.730836 -11017.595662  22369.372593    124.284665
PR11 -25441.702666    679.858151  -2020.815142    -18.270691
PR12 -17216.757738   7865.605438 -17064.598475    117.851073
PR13   1420.111105  10942.150559 -23019.942210    -36.638237
PR14  18998.457360   7585.225090 -15225.344351     49.588316
PR15  25483.541405   -151.640596   1190.085570    106.228260
PR16  16782.608590  -8461.974281  17283.026565     -2.414066
PR17   5579.741860  10624.713673  22515.716783    312.791480
PR18  14209.488349  -5676.778422  20405.821300     30.082884
PR19  15855.044217 -18443.376307   7685.219787    -85.970505
PR20   7442.257649 -21330.798154 -11782.751790   -407.745892
PR21  -6050.557857  -9841.007636 -22741.162363   -114.324849
PR22 -15045.943490   8331.697764 -18883.900689    -19.673470
PR23 -13732.400843  21474.716456  -1092.077153    295.534494
PR24  -5433.284779  20717.736690  13850.673768    -49.484287
PR26   9644.763513 -22349.538214  -7647.102871   -401.287571
EOF
